start=new Date('2022-05-08T00:00:00.000Z').valueOf();
sats=[{"MEAN_MOTION_DDOT":"0.0000000000000","MEAN_ELEMENT_THEORY":"SGP4","TLE_LINE2":"2 48013  53.0549 116.3391 0002264  49.5509 310.5677 15.06411699 63655","OBJECT_NAME":"STARLINK-2243","DECAY_DATE":null,"SITE":"AFETR","RA_OF_ASC_NODE":"116.3391","INCLINATION":"53.0549","GP_ID":"202924650","REF_FRAME":"TEME","CLASSIFICATION_TYPE":"U","ELEMENT_SET_NO":"999","NORAD_CAT_ID":"48013","APOAPSIS":"548.746","LAUNCH_DATE":"2021-03-24","MEAN_MOTION":"15.06411699","PERIAPSIS":"545.610","RCS_SIZE":"LARGE","REV_AT_EPOCH":"6365","OBJECT_TYPE":"PAYLOAD","ARG_OF_PERICENTER":"49.5509","SEMIMAJOR_AXIS":"6925.313","TLE_LINE1":"1 48013U 21024AN  22127.49116669  .00000853  00000-0  76127-4 0  9994","BSTAR":"0.00007612700000","EPHEMERIS_TYPE":"0","FILE":"3433971","OBJECT_ID":"2021-024AN","CENTER_NAME":"EARTH","MEAN_ANOMALY":"310.5677","ECCENTRICITY":"0.00022640","COUNTRY_CODE":"US","MEAN_MOTION_DOT":"0.00000853","PERIOD":"95.591","TIME_SYSTEM":"UTC","EPOCH":"2022-05-07T11:47:16.802016"},{"GP_ID":"202936539","CLASSIFICATION_TYPE":"U","REF_FRAME":"TEME","ELEMENT_SET_NO":"999","NORAD_CAT_ID":"48014","APOAPSIS":"555.837","LAUNCH_DATE":"2021-03-24","MEAN_MOTION":"15.03965570","PERIAPSIS":"553.533","MEAN_ELEMENT_THEORY":"SGP4","MEAN_MOTION_DDOT":"0.0000000000000","TLE_LINE2":"2 48014  53.0539  78.9719 0001662  52.7737 327.3927 15.03965570 63734","DECAY_DATE":null,"OBJECT_NAME":"STARLINK-2283","SITE":"AFETR","RA_OF_ASC_NODE":"78.9719","INCLINATION":"53.0539","OBJECT_ID":"2021-024AP","FILE":"3434306","CENTER_NAME":"EARTH","MEAN_ANOMALY":"327.3927","ECCENTRICITY":"0.00016620","COUNTRY_CODE":"US","MEAN_MOTION_DOT":"0.00000913","PERIOD":"95.747","TIME_SYSTEM":"UTC","EPOCH":"2022-05-07T22:00:00.999936","RCS_SIZE":"LARGE","REV_AT_EPOCH":"6373","OBJECT_TYPE":"PAYLOAD","ARG_OF_PERICENTER":"52.7737","SEMIMAJOR_AXIS":"6932.820","TLE_LINE1":"1 48014U 21024AP  22127.91667824  .00000913  00000-0  85135-4 0  9992","BSTAR":"0.00008513500000","EPHEMERIS_TYPE":"0"},{"BSTAR":"-0.00056498000000","EPHEMERIS_TYPE":"0","SEMIMAJOR_AXIS":"6925.325","TLE_LINE1":"1 48016U 21024AR  22127.91667824 -.00008689  00000-0 -56498-3 0  9993","ARG_OF_PERICENTER":"50.2298","OBJECT_TYPE":"PAYLOAD","RCS_SIZE":"LARGE","REV_AT_EPOCH":"6393","TIME_SYSTEM":"UTC","EPOCH":"2022-05-07T22:00:00.999936","PERIOD":"95.592","MEAN_MOTION_DOT":"-0.00008689","ECCENTRICITY":"0.00018760","MEAN_ANOMALY":"318.8446","COUNTRY_CODE":"US","OBJECT_ID":"2021-024AR","FILE":"3434308","CENTER_NAME":"EARTH","INCLINATION":"53.0558","RA_OF_ASC_NODE":"64.4155","SITE":"AFETR","OBJECT_NAME":"STARLINK-2284","DECAY_DATE":null,"MEAN_MOTION_DDOT":"0.0000000000000","MEAN_ELEMENT_THEORY":"SGP4","TLE_LINE2":"2 48016  53.0558  64.4155 0001876  50.2298 318.8446 15.06407748 63937","PERIAPSIS":"545.891","LAUNCH_DATE":"2021-03-24","MEAN_MOTION":"15.06407748","APOAPSIS":"548.489","ELEMENT_SET_NO":"999","NORAD_CAT_ID":"48016","CLASSIFICATION_TYPE":"U","REF_FRAME":"TEME","GP_ID":"202936584"},{"PERIAPSIS":"340.205","LAUNCH_DATE":"2021-03-24","MEAN_MOTION":"15.74351473","APOAPSIS":"352.753","ELEMENT_SET_NO":"999","NORAD_CAT_ID":"48017","REF_FRAME":"TEME","CLASSIFICATION_TYPE":"U","GP_ID":"202936588","INCLINATION":"53.0485","RA_OF_ASC_NODE":"89.9918","SITE":"AFETR","OBJECT_NAME":"STARLINK-2239","DECAY_DATE":null,"MEAN_ELEMENT_THEORY":"SGP4","MEAN_MOTION_DDOT":"0.0000000000000","TLE_LINE2":"2 48017  53.0485  89.9918 0009330  38.5822 321.5862 15.74351473 63561","TIME_SYSTEM":"UTC","EPOCH":"2022-05-07T14:48:59.659488","PERIOD":"91.466","MEAN_MOTION_DOT":"0.00150992","MEAN_ANOMALY":"321.5862","ECCENTRICITY":"0.00093300","COUNTRY_CODE":"US","OBJECT_ID":"2021-024AS","FILE":"3434309","CENTER_NAME":"EARTH","BSTAR":"0.00100740000000","EPHEMERIS_TYPE":"0","SEMIMAJOR_AXIS":"6724.614","TLE_LINE1":"1 48017U 21024AS  22127.61735717  .00150992  00000-0  10074-2 0  9990","ARG_OF_PERICENTER":"38.5822","OBJECT_TYPE":"PAYLOAD","RCS_SIZE":"LARGE","REV_AT_EPOCH":"6356"},{"NORAD_CAT_ID":"48018","ELEMENT_SET_NO":"999","GP_ID":"202936614","REF_FRAME":"TEME","CLASSIFICATION_TYPE":"U","PERIAPSIS":"545.820","APOAPSIS":"548.603","MEAN_MOTION":"15.06400760","LAUNCH_DATE":"2021-03-24","SITE":"AFETR","TLE_LINE2":"2 48018  53.0542 136.2552 0002009  43.4848 316.6299 15.06400760 62900","MEAN_MOTION_DDOT":"0.0000000000000","MEAN_ELEMENT_THEORY":"SGP4","OBJECT_NAME":"STARLINK-2282","DECAY_DATE":null,"RA_OF_ASC_NODE":"136.2552","INCLINATION":"53.0542","COUNTRY_CODE":"US","MEAN_ANOMALY":"316.6299","ECCENTRICITY":"0.00020090","MEAN_MOTION_DOT":"0.00001499","CENTER_NAME":"EARTH","OBJECT_ID":"2021-024AT","FILE":"3434311","EPOCH":"2022-05-07T12:09:48.319200","TIME_SYSTEM":"UTC","PERIOD":"95.592","OBJECT_TYPE":"PAYLOAD","ARG_OF_PERICENTER":"43.4848","REV_AT_EPOCH":"6290","RCS_SIZE":"LARGE","TLE_LINE1":"1 48018U 21024AT  22127.50680925  .00001499  00000-0  11952-3 0  9993","SEMIMAJOR_AXIS":"6925.346","EPHEMERIS_TYPE":"0","BSTAR":"0.00011952000000"},{"NORAD_CAT_ID":"48019","ELEMENT_SET_NO":"999","CLASSIFICATION_TYPE":"U","REF_FRAME":"TEME","GP_ID":"202925399","PERIAPSIS":"545.905","MEAN_MOTION":"15.06402902","LAUNCH_DATE":"2021-03-24","APOAPSIS":"548.505","SITE":"AFETR","OBJECT_NAME":"STARLINK-2285","DECAY_DATE":null,"TLE_LINE2":"2 48019  53.0531 126.7049 0001877  55.8691 304.2476 15.06402902 63494","MEAN_MOTION_DDOT":"0.0000000000000","MEAN_ELEMENT_THEORY":"SGP4","INCLINATION":"53.0531","RA_OF_ASC_NODE":"126.7049","MEAN_MOTION_DOT":"-0.00001302","COUNTRY_CODE":"US","MEAN_ANOMALY":"304.2476","ECCENTRICITY":"0.00018770","CENTER_NAME":"EARTH","OBJECT_ID":"2021-024AU","FILE":"3433971","EPOCH":"2022-05-07T09:49:11.029152","TIME_SYSTEM":"UTC","PERIOD":"95.592","ARG_OF_PERICENTER":"55.8691","OBJECT_TYPE":"PAYLOAD","REV_AT_EPOCH":"6349","RCS_SIZE":"LARGE","EPHEMERIS_TYPE":"0","BSTAR":"-0.00006849900000","TLE_LINE1":"1 48019U 21024AU  22127.40915543 -.00001302  00000-0 -68499-4 0  9994","SEMIMAJOR_AXIS":"6925.340"},{"OBJECT_ID":"2021-024AV","FILE":"3433971","CENTER_NAME":"EARTH","MEAN_ANOMALY":"146.2212","ECCENTRICITY":"0.00018830","COUNTRY_CODE":"US","MEAN_MOTION_DOT":"-0.00014116","PERIOD":"95.592","TIME_SYSTEM":"UTC","EPOCH":"2022-05-07T14:00:01.000224","RCS_SIZE":"LARGE","REV_AT_EPOCH":"361","OBJECT_TYPE":"PAYLOAD","ARG_OF_PERICENTER":"51.6813","SEMIMAJOR_AXIS":"6925.346","TLE_LINE1":"1 48020U 21024AV  22127.58334491 -.00014116  00000-0 -93058-3 0  9997","BSTAR":"-0.00093058000000","EPHEMERIS_TYPE":"0","GP_ID":"202926151","REF_FRAME":"TEME","CLASSIFICATION_TYPE":"U","ELEMENT_SET_NO":"999","NORAD_CAT_ID":"48020","APOAPSIS":"548.515","LAUNCH_DATE":"2021-03-24","MEAN_MOTION":"15.06400692","PERIAPSIS":"545.907","MEAN_MOTION_DDOT":"0.0000000000000","MEAN_ELEMENT_THEORY":"SGP4","TLE_LINE2":"2 48020  53.0551  80.9118 0001883  51.6813 146.2212 15.06400692  3617","DECAY_DATE":null,"OBJECT_NAME":"STARLINK-2294","SITE":"AFETR","RA_OF_ASC_NODE":"80.9118","INCLINATION":"53.0551"},{"REV_AT_EPOCH":"6404","RCS_SIZE":"LARGE","ARG_OF_PERICENTER":"48.9179","OBJECT_TYPE":"PAYLOAD","EPHEMERIS_TYPE":"0","BSTAR":"-0.00003313900000","TLE_LINE1":"1 48021U 21024AW  22127.26540692 -.00000775  00000-0 -33139-4 0  9996","SEMIMAJOR_AXIS":"6925.371","CENTER_NAME":"EARTH","OBJECT_ID":"2021-024AW","FILE":"3433971","MEAN_MOTION_DOT":"-0.00000775","COUNTRY_CODE":"US","ECCENTRICITY":"0.00020610","MEAN_ANOMALY":"311.1988","PERIOD":"95.593","EPOCH":"2022-05-07T06:22:11.157888","TIME_SYSTEM":"UTC","DECAY_DATE":null,"OBJECT_NAME":"STARLINK-2301","TLE_LINE2":"2 48021  53.0557  87.3540 0002061  48.9179 311.1988 15.06392539 64044","MEAN_MOTION_DDOT":"0.0000000000000","MEAN_ELEMENT_THEORY":"SGP4","SITE":"AFETR","INCLINATION":"53.0557","RA_OF_ASC_NODE":"87.3540","REF_FRAME":"TEME","CLASSIFICATION_TYPE":"U","GP_ID":"202925900","NORAD_CAT_ID":"48021","ELEMENT_SET_NO":"999","MEAN_MOTION":"15.06392539","LAUNCH_DATE":"2021-03-24","APOAPSIS":"548.664","PERIAPSIS":"545.809"},{"TIME_SYSTEM":"UTC","EPOCH":"2022-05-07T07:59:01.108608","PERIOD":"95.592","MEAN_MOTION_DOT":"0.00000345","COUNTRY_CODE":"US","ECCENTRICITY":"0.00021150","MEAN_ANOMALY":"317.4204","CENTER_NAME":"EARTH","OBJECT_ID":"2021-024AX","FILE":"3433971","EPHEMERIS_TYPE":"0","BSTAR":"0.00004204800000","TLE_LINE1":"1 48022U 21024AX  22127.33265172  .00000345  00000-0  42048-4 0  9992","SEMIMAJOR_AXIS":"6925.349","ARG_OF_PERICENTER":"42.6949","OBJECT_TYPE":"PAYLOAD","REV_AT_EPOCH":"6326","RCS_SIZE":"LARGE","PERIAPSIS":"545.749","MEAN_MOTION":"15.06399980","LAUNCH_DATE":"2021-03-24","APOAPSIS":"548.678","NORAD_CAT_ID":"48022","ELEMENT_SET_NO":"999","CLASSIFICATION_TYPE":"U","REF_FRAME":"TEME","GP_ID":"202924651","INCLINATION":"53.0545","RA_OF_ASC_NODE":"147.0490","SITE":"AFETR","DECAY_DATE":null,"OBJECT_NAME":"STARLINK-2298","TLE_LINE2":"2 48022  53.0545 147.0490 0002115  42.6949 317.4204 15.06399980 63266","MEAN_ELEMENT_THEORY":"SGP4","MEAN_MOTION_DDOT":"0.0000000000000"},{"INCLINATION":"53.0552","RA_OF_ASC_NODE":"146.3808","DECAY_DATE":null,"OBJECT_NAME":"STARLINK-2292","TLE_LINE2":"2 48023  53.0552 146.3808 0001783  50.1689 309.9457 15.06394152 63289","MEAN_ELEMENT_THEORY":"SGP4","MEAN_MOTION_DDOT":"0.0000000000000","SITE":"AFETR","MEAN_MOTION":"15.06394152","LAUNCH_DATE":"2021-03-24","APOAPSIS":"548.466","PERIAPSIS":"545.997","CLASSIFICATION_TYPE":"U","REF_FRAME":"TEME","GP_ID":"202924901","NORAD_CAT_ID":"48023","ELEMENT_SET_NO":"999","EPHEMERIS_TYPE":"0","BSTAR":"0.00000994960000","TLE_LINE1":"1 48023U 21024AY  22127.48103790 -.00000133  00000-0  99496-5 0  9992","SEMIMAJOR_AXIS":"6925.366","REV_AT_EPOCH":"6328","RCS_SIZE":"LARGE","ARG_OF_PERICENTER":"50.1689","OBJECT_TYPE":"PAYLOAD","PERIOD":"95.593","TIME_SYSTEM":"UTC","EPOCH":"2022-05-07T11:32:41.674560","CENTER_NAME":"EARTH","FILE":"3433971","OBJECT_ID":"2021-024AY","MEAN_MOTION_DOT":"-0.00000133","COUNTRY_CODE":"US","MEAN_ANOMALY":"309.9457","ECCENTRICITY":"0.00017830"}];
